{"type": "FeatureCollection", "features": [ {"type": "Feature", "properties": {"norad_id": 43107, "name": "BEIDOU-3 M7 (C27)", "group": "gnss", "lat": -16.711481911349253, "lon": -63.44808480746074, "alt_km": 21530.246125135825, "timestamp": "2025-12-09T05:43:20.967716+00:00", "meta": {"OBJECT_NAME": "BEIDOU-3 M7 (C27)", "OBJECT_ID": "2018-003A", "EPOCH": "2025-12-08T04:41:21.311520", "MEAN_MOTION": 1.86232319, "ECCENTRICITY": 0.00027287, "INCLINATION": 54.5008, "RA_OF_ASC_NODE": 308.973, "ARG_OF_PERICENTER": 69.0594, "MEAN_ANOMALY": 290.9569, "EPHEMERIS_TYPE": 0, "CLASSIFICATION_TYPE": "U", "NORAD_CAT_ID": 43107, "ELEMENT_SET_NO": 999, "REV_AT_EPOCH": 5379, "BSTAR": 0, "MEAN_MOTION_DOT": -7.3e-07, "MEAN_MOTION_DDOT": 0}, "tle": {"line1": "1 43107U 18003A   25342.19538555 -.00000073  00000+0  00000+0 0  9993", "line2": "2 43107  54.5008 308.9730 0002728  69.0594 290.9569  1.86232319 53790"}}, "geometry": {"type": "Point", "coordinates": [-63.44808480746074, -16.711481911349253]}}, {"type": "Feature", "properties": {"norad_id": 43108, "name": "BEIDOU-3 M8 (C28)", "group": "gnss", "lat": 13.188452448530446, "lon": -41.475509523786165, "alt_km": 21529.039553546463, "timestamp": "2025-12-09T05:43:20.967727+00:00", "meta": {"OBJECT_NAME": "BEIDOU-3 M8 (C28)", "OBJECT_ID": "2018-003B", "EPOCH": "2025-12-08T03:21:57.743424", "MEAN_MOTION": 1.86230794, "ECCENTRICITY": 0.00047249, "INCLINATION": 54.4937, "RA_OF_ASC_NODE": 308.9576, "ARG_OF_PERICENTER": 275.4662, "MEAN_ANOMALY": 84.4669, "EPHEMERIS_TYPE": 0, "CLASSIFICATION_TYPE": "U", "NORAD_CAT_ID": 43108, "ELEMENT_SET_NO": 999, "REV_AT_EPOCH": 5380, "BSTAR": 0, "MEAN_MOTION_DOT": -7.3e-07, "MEAN_MOTION_DDOT": 0}, "tle": {"line1": "1 43108U 18003B   25342.14025166 -.00000073  00000+0  00000+0 0  9998", "line2": "2 43108  54.4937 308.9576 0004724 275.4662  84.4669  1.86230794 53800"}}, "geometry": {"type": "Point", "coordinates": [-41.475509523786165, 13.188452448530446]}}, {"type": "Feature", "properties": {"norad_id": 43207, "name": "BEIDOU-3 M4 (C22)", "group": "gnss", "lat": 55.22266025838515, "lon": 141.79326523207487, "alt_km": 21517.34834337729, "timestamp": "2025-12-09T05:43:20.967743+00:00", "meta": {"OBJECT_NAME": "BEIDOU-3 M4 (C22)", "OBJECT_ID": "2018-018A", "EPOCH": "2025-12-06T10:25:28.939872", "MEAN_MOTION": 1.86230708, "ECCENTRICITY": 0.0004178, "INCLINATION": 56.4806, "RA_OF_ASC_NODE": 69.5126, "ARG_OF_PERICENTER": 11.9666, "MEAN_ANOMALY": 348.0575, "EPHEMERIS_TYPE": 0, "CLASSIFICATION_TYPE": "U", "NORAD_CAT_ID": 43207, "ELEMENT_SET_NO": 999, "REV_AT_EPOCH": 5315, "BSTAR": 0, "MEAN_MOTION_DOT": -4.5e-07, "MEAN_MOTION_DDOT": 0}, "tle": {"line1": "1 43207U 18018A   25340.43436273 -.00000045  00000+0  00000+0 0  9998", "line2": "2 43207  56.4806  69.5126 0004178  11.9666 348.0575  1.86230708 53156"}}, "geometry": {"type": "Point", "coordinates": [141.79326523207487, 55.22266025838515]}}, {"type": "Feature", "properties": {"norad_id": 43208, "name": "BEIDOU-3 M3 (C21)", "group": "gnss", "lat": 28.88805099912061, "lon": 90.85069798175945, "alt_km": 21520.84841468188, "timestamp": "2025-12-09T05:43:20.967754+00:00", "meta": {"OBJECT_NAME": "BEIDOU-3 M3 (C21)", "OBJECT_ID": "2018-018B", "EPOCH": "2025-12-06T12:01:16.553856", "MEAN_MOTION": 1.8623091, "ECCENTRICITY": 0.0006466, "INCLINATION": 56.4802, "RA_OF_ASC_NODE": 69.5146, "ARG_OF_PERICENTER": 317.243, "MEAN_ANOMALY": 42.7213, "EPHEMERIS_TYPE": 0, "CLASSIFICATION_TYPE": "U", "NORAD_CAT_ID": 43208, "ELEMENT_SET_NO": 999, "REV_AT_EPOCH": 5315, "BSTAR": 0, "MEAN_MOTION_DOT": -4.5e-07, "MEAN_MOTION_DDOT": 0}, "tle": {"line1": "1 43208U 18018B   25340.50088604 -.00000045  00000+0  00000+0 0  9998", "line2": "2 43208  56.4802  69.5146 0006466 317.2430  42.7213  1.86230910 53150"}}, "geometry": {"type": "Point", "coordinates": [90.85069798175945, 28.88805099912061]}}, {"type": "Feature", "properties": {"norad_id": 43245, "name": "BEIDOU-3 M9 (C29)", "group": "gnss", "lat": -50.00275141959937, "lon": -174.759456013153, "alt_km": 21529.847425434262, "timestamp": "2025-12-09T05:43:20.967766+00:00", "meta": {"OBJECT_NAME": "BEIDOU-3 M9 (C29)", "OBJECT_ID": "2018-029A", "EPOCH": "2025-12-07T06:05:41.958240", "MEAN_MOTION": 1.86227905, "ECCENTRICITY": 0.0001619, "INCLINATION": 54.3706, "RA_OF_ASC_NODE": 306.6586, "ARG_OF_PERICENTER": 277.0256, "MEAN_ANOMALY": 82.9411, "EPHEMERIS_TYPE": 0, "CLASSIFICATION_TYPE": "U", "NORAD_CAT_ID": 43245, "ELEMENT_SET_NO": 999, "REV_AT_EPOCH": 5232, "BSTAR": 0, "MEAN_MOTION_DOT": -7e-07, "MEAN_MOTION_DDOT": 0}, "tle": {"line1": "1 43245U 18029A   25341.25395785 -.00000070  00000+0  00000+0 0  9993", "line2": "2 43245  54.3706 306.6586 0001619 277.0256  82.9411  1.86227905 52322"}}, "geometry": {"type": "Point", "coordinates": [-174.759456013153, -50.00275141959937]}}, {"type": "Feature", "properties": {"norad_id": 43246, "name": "BEIDOU-3 M10 (C30)", "group": "gnss", "lat": -48.02433111391574, "lon": -106.21941193248817, "alt_km": 21529.148060534106, "timestamp": "2025-12-09T05:43:20.967779+00:00", "meta": {"OBJECT_NAME": "BEIDOU-3 M10 (C30)", "OBJECT_ID": "2018-029B", "EPOCH": "2025-12-07T04:32:29.911776", "MEAN_MOTION": 1.86228892, "ECCENTRICITY": 0.00040611, "INCLINATION": 54.3683, "RA_OF_ASC_NODE": 306.6886, "ARG_OF_PERICENTER": 0.524, "MEAN_ANOMALY": 359.4613, "EPHEMERIS_TYPE": 0, "CLASSIFICATION_TYPE": "U", "NORAD_CAT_ID": 43246, "ELEMENT_SET_NO": 999, "REV_AT_EPOCH": 5230, "BSTAR": 0, "MEAN_MOTION_DOT": -7e-07, "MEAN_MOTION_DDOT": 0}, "tle": {"line1": "1 43246U 18029B   25341.18923509 -.00000070  00000+0  00000+0 0  9997", "line2": "2 43246  54.3683 306.6886 0004061   0.5240 359.4613  1.86228892 52306"}}, "geometry": {"type": "Point", "coordinates": [-106.21941193248817, -48.02433111391574]}}, {"type": "Feature", "properties": {"norad_id": 43286, "name": "IRNSS-1I", "group": "gnss", "lat": 17.514680146682892, "lon": -137.30759749138258, "alt_km": 35712.904452768984, "timestamp": "2025-12-09T05:43:20.967791+00:00", "meta": {"OBJECT_NAME": "IRNSS-1I", "OBJECT_ID": "2018-035A", "EPOCH": "2025-12-07T20:44:32.673984", "MEAN_MOTION": 1.00269085, "ECCENTRICITY": 0.00219299, "INCLINATION": 29.1385, "RA_OF_ASC_NODE": 77.1731, "ARG_OF_PERICENTER": 181.2064, "MEAN_ANOMALY": 184.6969, "EPHEMERIS_TYPE": 0, "CLASSIFICATION_TYPE": "U", "NORAD_CAT_ID": 43286, "ELEMENT_SET_NO": 999, "REV_AT_EPOCH": 2816, "BSTAR": 0, "MEAN_MOTION_DOT": 7.4e-07, "MEAN_MOTION_DDOT": 0}, "tle": {"line1": "1 43286U 18035A   25341.86426706  .00000074  00000+0  00000+0 0  9993", "line2": "2 43286  29.1385  77.1731 0021929 181.2064 184.6969  1.00269085 28165"}}, "geometry": {"type": "Point", "coordinates": [-137.30759749138258, 17.514680146682892]}}, {"type": "Feature", "properties": {"norad_id": 43508, "name": "COSMOS 2527 (756)", "group": "gnss", "lat": 20.981075505109256, "lon": -109.81448967102457, "alt_km": 19119.50903851752, "timestamp": "2025-12-09T05:43:20.967803+00:00", "meta": {"OBJECT_NAME": "COSMOS 2527 (756)", "OBJECT_ID": "2018-053A", "EPOCH": "2025-12-08T13:33:02.442240", "MEAN_MOTION": 2.1310206, "ECCENTRICITY": 0.0008756, "INCLINATION": 65.4701, "RA_OF_ASC_NODE": 80.2713, "ARG_OF_PERICENTER": 225.5022, "MEAN_ANOMALY": 134.4409, "EPHEMERIS_TYPE": 0, "CLASSIFICATION_TYPE": "U", "NORAD_CAT_ID": 43508, "ELEMENT_SET_NO": 999, "REV_AT_EPOCH": 5821, "BSTAR": 0, "MEAN_MOTION_DOT": -1e-07, "MEAN_MOTION_DDOT": 0}, "tle": {"line1": "1 43508U 18053A   25342.56461160 -.00000010  00000+0  00000+0 0  9992", "line2": "2 43508  65.4701  80.2713 0008756 225.5022 134.4409  2.13102060 58216"}}, "geometry": {"type": "Point", "coordinates": [-109.81448967102457, 20.981075505109256]}}, {"type": "Feature", "properties": {"norad_id": 43539, "name": "BEIDOU-2 IGSO-7 (C16)", "group": "gnss", "lat": 50.59354264006217, "lon": -73.34757893442982, "alt_km": 36009.64585320704, "timestamp": "2025-12-09T05:43:20.967815+00:00", "meta": {"OBJECT_NAME": "BEIDOU-2 IGSO-7 (C16)", "OBJECT_ID": "2018-057A", "EPOCH": "2025-12-08T10:41:53.941344", "MEAN_MOTION": 1.00258189, "ECCENTRICITY": 0.00925204, "INCLINATION": 55.1743, "RA_OF_ASC_NODE": 164.7087, "ARG_OF_PERICENTER": 235.2301, "MEAN_ANOMALY": 309.1425, "EPHEMERIS_TYPE": 0, "CLASSIFICATION_TYPE": "U", "NORAD_CAT_ID": 43539, "ELEMENT_SET_NO": 999, "REV_AT_EPOCH": 2721, "BSTAR": 0, "MEAN_MOTION_DOT": -7e-07, "MEAN_MOTION_DDOT": 0}, "tle": {"line1": "1 43539U 18057A   25342.44576321 -.00000070  00000+0  00000+0 0  9999", "line2": "2 43539  55.1743 164.7087 0092520 235.2301 309.1425  1.00258189 27218"}}, "geometry": {"type": "Point", "coordinates": [-73.34757893442982, 50.59354264006217]}}, {"type": "Feature", "properties": {"norad_id": 43564, "name": "GSAT0221 (GALILEO 25)", "group": "gnss", "lat": 33.205997423064325, "lon": 141.97033141746698, "alt_km": 23233.656420239622, "timestamp": "2025-12-09T05:43:20.967827+00:00", "meta": {"OBJECT_NAME": "GSAT0221 (GALILEO 25)", "OBJECT_ID": "2018-060A", "EPOCH": "2025-12-06T15:57:28.986048", "MEAN_MOTION": 1.70475679, "ECCENTRICITY": 0.00066883, "INCLINATION": 57.2291, "RA_OF_ASC_NODE": 346.9817, "ARG_OF_PERICENTER": 281.5609, "MEAN_ANOMALY": 78.3858, "EPHEMERIS_TYPE": 0, "CLASSIFICATION_TYPE": "U", "NORAD_CAT_ID": 43564, "ELEMENT_SET_NO": 999, "REV_AT_EPOCH": 4588, "BSTAR": 0, "MEAN_MOTION_DOT": -8.1e-07, "MEAN_MOTION_DDOT": 0}, "tle": {"line1": "1 43564U 18060A   25340.66491882 -.00000081  00000+0  00000+0 0  9993", "line2": "2 43564  57.2291 346.9817 0006688 281.5609  78.3858  1.70475679 45887"}}, "geometry": {"type": "Point", "coordinates": [141.97033141746698, 33.205997423064325]}}]}